{"type": "FeatureCollection", "features": [ {"type": "Feature", "properties": {"norad_id": 54234, "name": "NOAA 21 (JPSS-2)", "group": "weather", "lat": 67.52601018260104, "lon": 137.94201435342245, "alt_km": 820.5507736296777, "timestamp": "2025-12-25T22:42:16.639770+00:00", "meta": {"OBJECT_NAME": "NOAA 21 (JPSS-2)", "OBJECT_ID": "2022-150A", "EPOCH": "2025-12-25T18:48:05.685696", "MEAN_MOTION": 14.19527642, "ECCENTRICITY": 0.0001616, "INCLINATION": 98.7478, "RA_OF_ASC_NODE": 295.9299, "ARG_OF_PERICENTER": 10.9996, "MEAN_ANOMALY": 349.1215, "EPHEMERIS_TYPE": 0, "CLASSIFICATION_TYPE": "U", "NORAD_CAT_ID": 54234, "ELEMENT_SET_NO": 999, "REV_AT_EPOCH": 16194, "BSTAR": 6.8925e-05, "MEAN_MOTION_DOT": 1.01e-06, "MEAN_MOTION_DDOT": 0}, "tle": {"line1": "1 54234U 22150A   25359.78339914  .00000101  00000+0  68925-4 0  9991", "line2": "2 54234  98.7478 295.9299 0001616  10.9996 349.1215 14.19527642161943"}}, "geometry": {"type": "Point", "coordinates": [137.94201435342245, 67.52601018260104]}}, {"type": "Feature", "properties": {"norad_id": 54743, "name": "METEOSAT-12 (MTG-I1)", "group": "weather", "lat": 0.5474272971766856, "lon": 74.93887573134178, "alt_km": 35793.14170335127, "timestamp": "2025-12-25T22:42:16.639819+00:00", "meta": {"OBJECT_NAME": "METEOSAT-12 (MTG-I1)", "OBJECT_ID": "2022-170C", "EPOCH": "2025-12-25T16:29:22.504128", "MEAN_MOTION": 1.00270898, "ECCENTRICITY": 0.0001666, "INCLINATION": 0.7002, "RA_OF_ASC_NODE": 25.7407, "ARG_OF_PERICENTER": 241.4099, "MEAN_ANOMALY": 74.3134, "EPHEMERIS_TYPE": 0, "CLASSIFICATION_TYPE": "U", "NORAD_CAT_ID": 54743, "ELEMENT_SET_NO": 999, "REV_AT_EPOCH": 1123, "BSTAR": 0, "MEAN_MOTION_DOT": 1.4e-07, "MEAN_MOTION_DDOT": 0}, "tle": {"line1": "1 54743U 22170C   25359.68706602  .00000014  00000+0  00000+0 0  9997", "line2": "2 54743   0.7002  25.7407 0001666 241.4099  74.3134  1.00270898 11231"}}, "geometry": {"type": "Point", "coordinates": [74.93887573134178, 0.5474272971766856]}}, {"type": "Feature", "properties": {"norad_id": 55973, "name": "TIANMU-1 03", "group": "weather", "lat": 46.79835791447973, "lon": 154.89269101762264, "alt_km": 435.8783097857531, "timestamp": "2025-12-25T22:42:16.639833+00:00", "meta": {"OBJECT_NAME": "TIANMU-1 03", "OBJECT_ID": "2023-039A", "EPOCH": "2025-12-25T17:49:32.623680", "MEAN_MOTION": 15.41302792, "ECCENTRICITY": 0.000375, "INCLINATION": 97.5115, "RA_OF_ASC_NODE": 162.7607, "ARG_OF_PERICENTER": 22.9464, "MEAN_ANOMALY": 337.1949, "EPHEMERIS_TYPE": 0, "CLASSIFICATION_TYPE": "U", "NORAD_CAT_ID": 55973, "ELEMENT_SET_NO": 999, "REV_AT_EPOCH": 15406, "BSTAR": 0.00040361, "MEAN_MOTION_DOT": 0.00016741, "MEAN_MOTION_DDOT": 0}, "tle": {"line1": "1 55973U 23039A   25359.74273870  .00016741  00000+0  40361-3 0  9993", "line2": "2 55973  97.5115 162.7607 0003750  22.9464 337.1949 15.41302792154066"}}, "geometry": {"type": "Point", "coordinates": [154.89269101762264, 46.79835791447973]}}, {"type": "Feature", "properties": {"norad_id": 55974, "name": "TIANMU-1 04", "group": "weather", "lat": 2.328410428980215, "lon": -17.537341737482546, "alt_km": 446.86265347207245, "timestamp": "2025-12-25T22:42:16.639844+00:00", "meta": {"OBJECT_NAME": "TIANMU-1 04", "OBJECT_ID": "2023-039B", "EPOCH": "2025-12-25T17:15:49.444992", "MEAN_MOTION": 15.41645821, "ECCENTRICITY": 0.0004347, "INCLINATION": 97.5046, "RA_OF_ASC_NODE": 161.9225, "ARG_OF_PERICENTER": 16.0465, "MEAN_ANOMALY": 344.0918, "EPHEMERIS_TYPE": 0, "CLASSIFICATION_TYPE": "U", "NORAD_CAT_ID": 55974, "ELEMENT_SET_NO": 999, "REV_AT_EPOCH": 15406, "BSTAR": 0.00039, "MEAN_MOTION_DOT": 0.0001636, "MEAN_MOTION_DDOT": 0}, "tle": {"line1": "1 55974U 23039B   25359.71932228  .00016360  00000+0  39000-3 0  9995", "line2": "2 55974  97.5046 161.9225 0004347  16.0465 344.0918 15.41645821154061"}}, "geometry": {"type": "Point", "coordinates": [-17.537341737482546, 2.328410428980215]}}, {"type": "Feature", "properties": {"norad_id": 55975, "name": "TIANMU-1 05", "group": "weather", "lat": -11.270367489752235, "lon": -18.85789408829317, "alt_km": 449.1161226992581, "timestamp": "2025-12-25T22:42:16.639855+00:00", "meta": {"OBJECT_NAME": "TIANMU-1 05", "OBJECT_ID": "2023-039C", "EPOCH": "2025-12-25T17:12:11.163168", "MEAN_MOTION": 15.41258537, "ECCENTRICITY": 0.0003888, "INCLINATION": 97.5093, "RA_OF_ASC_NODE": 162.4128, "ARG_OF_PERICENTER": 42.4532, "MEAN_ANOMALY": 317.7015, "EPHEMERIS_TYPE": 0, "CLASSIFICATION_TYPE": "U", "NORAD_CAT_ID": 55975, "ELEMENT_SET_NO": 999, "REV_AT_EPOCH": 15404, "BSTAR": 0.00038796, "MEAN_MOTION_DOT": 0.00016064, "MEAN_MOTION_DDOT": 0}, "tle": {"line1": "1 55975U 23039C   25359.71679587  .00016064  00000+0  38796-3 0  9994", "line2": "2 55975  97.5093 162.4128 0003888  42.4532 317.7015 15.41258537154046"}}, "geometry": {"type": "Point", "coordinates": [-18.85789408829317, -11.270367489752235]}}, {"type": "Feature", "properties": {"norad_id": 55976, "name": "TIANMU-1 06", "group": "weather", "lat": 11.829735608713781, "lon": -15.292084914511118, "alt_km": 444.43887398857623, "timestamp": "2025-12-25T22:42:16.639866+00:00", "meta": {"OBJECT_NAME": "TIANMU-1 06", "OBJECT_ID": "2023-039D", "EPOCH": "2025-12-25T17:18:19.868256", "MEAN_MOTION": 15.41697035, "ECCENTRICITY": 0.0004147, "INCLINATION": 97.5104, "RA_OF_ASC_NODE": 162.893, "ARG_OF_PERICENTER": 36.227, "MEAN_ANOMALY": 323.9257, "EPHEMERIS_TYPE": 0, "CLASSIFICATION_TYPE": "U", "NORAD_CAT_ID": 55976, "ELEMENT_SET_NO": 999, "REV_AT_EPOCH": 15406, "BSTAR": 0.00038891, "MEAN_MOTION_DOT": 0.00016341, "MEAN_MOTION_DDOT": 0}, "tle": {"line1": "1 55976U 23039D   25359.72106329  .00016341  00000+0  38891-3 0  9999", "line2": "2 55976  97.5104 162.8930 0004147  36.2270 323.9257 15.41697035154063"}}, "geometry": {"type": "Point", "coordinates": [-15.292084914511118, 11.829735608713781]}}, {"type": "Feature", "properties": {"norad_id": 56232, "name": "FENGYUN 3G", "group": "weather", "lat": -23.342704679512646, "lon": 0.5486634976719389, "alt_km": 413.1990994598036, "timestamp": "2025-12-25T22:42:16.639877+00:00", "meta": {"OBJECT_NAME": "FENGYUN 3G", "OBJECT_ID": "2023-055A", "EPOCH": "2025-12-25T17:09:48.146112", "MEAN_MOTION": 15.52086652, "ECCENTRICITY": 0.0003945, "INCLINATION": 49.9929, "RA_OF_ASC_NODE": 160.4863, "ARG_OF_PERICENTER": 291.3548, "MEAN_ANOMALY": 68.6997, "EPHEMERIS_TYPE": 0, "CLASSIFICATION_TYPE": "U", "NORAD_CAT_ID": 56232, "ELEMENT_SET_NO": 999, "REV_AT_EPOCH": 15304, "BSTAR": 0.00049973, "MEAN_MOTION_DOT": 0.00030428, "MEAN_MOTION_DDOT": 0}, "tle": {"line1": "1 56232U 23055A   25359.71514058  .00030428  00000+0  49973-3 0  9999", "line2": "2 56232  49.9929 160.4863 0003945 291.3548  68.6997 15.52086652153041"}}, "geometry": {"type": "Point", "coordinates": [0.5486634976719389, -23.342704679512646]}}, {"type": "Feature", "properties": {"norad_id": 57166, "name": "METEOR-M2 3", "group": "weather", "lat": -50.12382569309385, "lon": -137.22784505221375, "alt_km": 818.8939500167962, "timestamp": "2025-12-25T22:42:16.639891+00:00", "meta": {"OBJECT_NAME": "METEOR-M2 3", "OBJECT_ID": "2023-091A", "EPOCH": "2025-12-25T18:15:03.544416", "MEAN_MOTION": 14.24027615, "ECCENTRICITY": 0.0003223, "INCLINATION": 98.6361, "RA_OF_ASC_NODE": 53.0713, "ARG_OF_PERICENTER": 327.9658, "MEAN_ANOMALY": 32.1324, "EPHEMERIS_TYPE": 0, "CLASSIFICATION_TYPE": "U", "NORAD_CAT_ID": 57166, "ELEMENT_SET_NO": 999, "REV_AT_EPOCH": 12983, "BSTAR": 2.1146e-05, "MEAN_MOTION_DOT": 5e-08, "MEAN_MOTION_DDOT": 0}, "tle": {"line1": "1 57166U 23091A   25359.76045769  .00000005  00000+0  21146-4 0  9990", "line2": "2 57166  98.6361  53.0713 0003223 327.9658  32.1324 14.24027615129839"}}, "geometry": {"type": "Point", "coordinates": [-137.22784505221375, -50.12382569309385]}}, {"type": "Feature", "properties": {"norad_id": 57399, "name": "TIANMU-1 07", "group": "weather", "lat": -39.43488100719102, "lon": 55.544132500970626, "alt_km": 487.4061033676553, "timestamp": "2025-12-25T22:42:16.639902+00:00", "meta": {"OBJECT_NAME": "TIANMU-1 07", "OBJECT_ID": "2023-101A", "EPOCH": "2025-12-25T18:09:51.043392", "MEAN_MOTION": 15.28254782, "ECCENTRICITY": 0.000497, "INCLINATION": 97.2856, "RA_OF_ASC_NODE": 49.3193, "ARG_OF_PERICENTER": 47.9681, "MEAN_ANOMALY": 312.1981, "EPHEMERIS_TYPE": 0, "CLASSIFICATION_TYPE": "U", "NORAD_CAT_ID": 57399, "ELEMENT_SET_NO": 999, "REV_AT_EPOCH": 13514, "BSTAR": 0.0002909, "MEAN_MOTION_DOT": 7.939e-05, "MEAN_MOTION_DDOT": 0}, "tle": {"line1": "1 57399U 23101A   25359.75684078  .00007939  00000+0  29090-3 0  9999", "line2": "2 57399  97.2856  49.3193 0004970  47.9681 312.1981 15.28254782135149"}}, "geometry": {"type": "Point", "coordinates": [55.544132500970626, -39.43488100719102]}}, {"type": "Feature", "properties": {"norad_id": 57400, "name": "TIANMU-1 08", "group": "weather", "lat": 38.2127589442006, "lon": -124.92020355984305, "alt_km": 478.75105394414913, "timestamp": "2025-12-25T22:42:16.639912+00:00", "meta": {"OBJECT_NAME": "TIANMU-1 08", "OBJECT_ID": "2023-101B", "EPOCH": "2025-12-25T17:22:28.160256", "MEAN_MOTION": 15.28235827, "ECCENTRICITY": 0.0006909, "INCLINATION": 97.2844, "RA_OF_ASC_NODE": 49.0828, "ARG_OF_PERICENTER": 46.953, "MEAN_ANOMALY": 313.2287, "EPHEMERIS_TYPE": 0, "CLASSIFICATION_TYPE": "U", "NORAD_CAT_ID": 57400, "ELEMENT_SET_NO": 999, "REV_AT_EPOCH": 13513, "BSTAR": 0.00026407, "MEAN_MOTION_DOT": 7.197e-05, "MEAN_MOTION_DDOT": 0}, "tle": {"line1": "1 57400U 23101B   25359.72393704  .00007197  00000+0  26407-3 0  9997", "line2": "2 57400  97.2844  49.0828 0006909  46.9530 313.2287 15.28235827135136"}}, "geometry": {"type": "Point", "coordinates": [-124.92020355984305, 38.2127589442006]}}]}